TYVAK-0172              
1 46267U 20059C   26068.62538449  .00278441  00000+0  21652-2 0  9997
2 46267  97.7214 311.0561 0003543  67.1132 293.0503 15.70916107303116
STARLINK-11545 [DTC]    
1 63016U 25032M   26068.67891742  .00276170  00000+0  20652-2 0  9993
2 63016  42.9990 195.2651 0002656 292.8640  67.1947 15.71067515 62224
